{
  "norad_id": 54799,
  "name": "STARLINK-5421",
  "history": [
    {
      "epoch": "2026-03-28T20:27:39.479328",
      "apogee_km": 540.6174012673291,
      "perigee_km": 538.8508536962154,
      "latitude_deg": 36.19674385166979,
      "longitude_deg": 101.74386591976508,
      "semi_major_axis_km": 6917.8711274817715,
      "eccentricity": 0.00012768,
      "inclination_deg": 53.2171,
      "raan_deg": 293.0603,
      "arg_perigee_deg": 88.9939,
      "mean_anomaly_deg": 271.1199,
      "mean_motion_rev_day": 15.0884303
    },
    {
      "epoch": "2026-03-28T23:38:25.330560",
      "apogee_km": 540.6513397305162,
      "perigee_km": 538.7835190345822,
      "latitude_deg": -52.164450105520984,
      "longitude_deg": 114.46147839981131,
      "semi_major_axis_km": 6917.854429382549,
      "eccentricity": 0.000135,
      "inclination_deg": 53.2167,
      "raan_deg": 292.4642,
      "arg_perigee_deg": 90.2471,
      "mean_anomaly_deg": 269.8676,
      "mean_motion_rev_day": 15.08848493
    }
  ]
}